[{"OBJECT_NAME":"ONEWEB-0320","OBJECT_ID":"2021-083E","EPOCH":"2026-05-16T01:35:39.316128","MEAN_MOTION":13.18686699,"ECCENTRICITY":0.0001789,"INCLINATION":87.9167,"RA_OF_ASC_NODE":341.8568,"ARG_OF_PERICENTER":85.6952,"MEAN_ANOMALY":274.4385,"EPHEMERIS_TYPE":0,"CLASSIFICATION_TYPE":"U","NORAD_CAT_ID":49190,"ELEMENT_SET_NO":999,"REV_AT_EPOCH":22574,"BSTAR":0.00012525,"MEAN_MOTION_DOT":6.2e-07,"MEAN_MOTION_DDOT":0.0},{"OBJECT_NAME":"ONEWEB-0321","OBJECT_ID":"2021-083F","EPOCH":"2026-05-16T03:44:30.397632","MEAN_MOTION":13.2075727,"ECCENTRICITY":0.0001743,"INCLINATION":87.9159,"RA_OF_ASC_NODE":280.8231,"ARG_OF_PERICENTER":92.6428,"MEAN_ANOMALY":267.4905,"EPHEMERIS_TYPE":0,"CLASSIFICATION_TYPE":"U","NORAD_CAT_ID":49191,"ELEMENT_SET_NO":999,"REV_AT_EPOCH":23260,"BSTAR":-4.2244e-05,"MEAN_MOTION_DOT":-4e-08,"MEAN_MOTION_DDOT":0.0},{"OBJECT_NAME":"ONEWEB-0322","OBJECT_ID":"2021-083G","EPOCH":"2026-05-16T02:01:51.758112","MEAN_MOTION":13.13470883,"ECCENTRICITY":0.0001722,"INCLINATION":87.8938,"RA_OF_ASC_NODE":326.6333,"ARG_OF_PERICENTER":74.467,"MEAN_ANOMALY":285.6649,"EPHEMERIS_TYPE":0,"CLASSIFICATION_TYPE":"U","NORAD_CAT_ID":49192,"ELEMENT_SET_NO":999,"REV_AT_EPOCH":22670,"BSTAR":-0.00052874,"MEAN_MOTION_DOT":-1.8e-06,"MEAN_MOTION_DDOT":0.0},{"OBJECT_NAME":"ONEWEB-0324","OBJECT_ID":"2021-083H","EPOCH":"2026-05-16T02:46:03.883872","MEAN_MOTION":13.18685233,"ECCENTRICITY":0.0001677,"INCLINATION":87.918,"RA_OF_ASC_NODE":341.831,"ARG_OF_PERICENTER":89.7879,"MEAN_ANOMALY":270.3445,"EPHEMERIS_TYPE":0,"CLASSIFICATION_TYPE":"U","NORAD_CAT_ID":49193,"ELEMENT_SET_NO":999,"REV_AT_EPOCH":22577,"BSTAR":7.676800000000001e-05,"MEAN_MOTION_DOT":4.3e-07,"MEAN_MOTION_DDOT":0.0},{"OBJECT_NAME":"ONEWEB-0325","OBJECT_ID":"2021-083J","EPOCH":"2026-05-16T02:50:54.693312","MEAN_MOTION":13.18685158,"ECCENTRICITY":0.0001901,"INCLINATION":87.9168,"RA_OF_ASC_NODE":341.8421,"ARG_OF_PERICENTER":85.1287,"MEAN_ANOMALY":275.0062,"EPHEMERIS_TYPE":0,"CLASSIFICATION_TYPE":"U","NORAD_CAT_ID":49194,"ELEMENT_SET_NO":999,"REV_AT_EPOCH":22578,"BSTAR":0.00019348000000000002,"MEAN_MOTION_DOT":8.9e-07,"MEAN_MOTION_DDOT":0.0},{"OBJECT_NAME":"ONEWEB-0326","OBJECT_ID":"2021-083K","EPOCH":"2026-05-16T06:51:29.292480","MEAN_MOTION":13.1868521,"ECCENTRICITY":0.0002127,"INCLINATION":87.9176,"RA_OF_ASC_NODE":341.8035,"ARG_OF_PERICENTER":90.7898,"MEAN_ANOMALY":269.3478,"EPHEMERIS_TYPE":0,"CLASSIFICATION_TYPE":"U","NORAD_CAT_ID":49195,"ELEMENT_SET_NO":999,"REV_AT_EPOCH":22579,"BSTAR":0.00016309,"MEAN_MOTION_DOT":7.7e-07,"MEAN_MOTION_DDOT":0.0},{"OBJECT_NAME":"ONEWEB-0327","OBJECT_ID":"2021-083L","EPOCH":"2026-05-16T01:23:18.271104","MEAN_MOTION":13.18685415,"ECCENTRICITY":0.0002272,"INCLINATION":87.9171,"RA_OF_ASC_NODE":341.8554,"ARG_OF_PERICENTER":89.3802,"MEAN_ANOMALY":270.7591,"EPHEMERIS_TYPE":0,"CLASSIFICATION_TYPE":"U","NORAD_CAT_ID":49196,"ELEMENT_SET_NO":999,"REV_AT_EPOCH":22578,"BSTAR":0.00021062,"MEAN_MOTION_DOT":9.6e-07,"MEAN_MOTION_DDOT":0.0},{"OBJECT_NAME":"ONEWEB-0328","OBJECT_ID":"2021-083M","EPOCH":"2026-05-16T05:26:37.737024","MEAN_MOTION":13.13470838,"ECCENTRICITY":0.0001674,"INCLINATION":87.8952,"RA_OF_ASC_NODE":326.5748,"ARG_OF_PERICENTER":93.1304,"MEAN_ANOMALY":267.0017,"EPHEMERIS_TYPE":0,"CLASSIFICATION_TYPE":"U","NORAD_CAT_ID":49197,"ELEMENT_SET_NO":999,"REV_AT_EPOCH":22670,"BSTAR":0.00015701999999999998,"MEAN_MOTION_DOT":7e-07,"MEAN_MOTION_DDOT":0.0},{"OBJECT_NAME":"ONEWEB-0331","OBJECT_ID":"2021-083N","EPOCH":"2026-05-16T06:41:34.544256","MEAN_MOTION":13.18685279,"ECCENTRICITY":0.0002061,"INCLINATION":87.9177,"RA_OF_ASC_NODE":341.7987,"ARG_OF_PERICENTER":95.4901,"MEAN_ANOMALY":264.6466,"EPHEMERIS_TYPE":0,"CLASSIFICATION_TYPE":"U","NORAD_CAT_ID":49198,"ELEMENT_SET_NO":999,"REV_AT_EPOCH":22580,"BSTAR":7.2913e-05,"MEAN_MOTION_DOT":4.2e-07,"MEAN_MOTION_DDOT":0.0},{"OBJECT_NAME":"ONEWEB-0333","OBJECT_ID":"2021-083P","EPOCH":"2026-05-16T05:19:18.242688","MEAN_MOTION":13.13470777,"ECCENTRICITY":0.0001813,"INCLINATION":87.8943,"RA_OF_ASC_NODE":326.6051,"ARG_OF_PERICENTER":88.6574,"MEAN_ANOMALY":271.4763,"EPHEMERIS_TYPE":0,"CLASSIFICATION_TYPE":"U","NORAD_CAT_ID":49199,"ELEMENT_SET_NO":999,"REV_AT_EPOCH":22671,"BSTAR":0.00041193,"MEAN_MOTION_DOT":1.63e-06,"MEAN_MOTION_DDOT":0.0},{"OBJECT_NAME":"ONEWEB-0334","OBJECT_ID":"2021-083Q","EPOCH":"2026-05-16T02:20:50.883360","MEAN_MOTION":13.20721488,"ECCENTRICITY":0.0001533,"INCLINATION":87.9162,"RA_OF_ASC_NODE":280.8479,"ARG_OF_PERICENTER":66.4946,"MEAN_ANOMALY":293.6349,"EPHEMERIS_TYPE":0,"CLASSIFICATION_TYPE":"U","NORAD_CAT_ID":49200,"ELEMENT_SET_NO":999,"REV_AT_EPOCH":23255,"BSTAR":0.0009545500000000001,"MEAN_MOTION_DOT":4.01e-06,"MEAN_MOTION_DDOT":0.0},{"OBJECT_NAME":"ONEWEB-0335","OBJECT_ID":"2021-083R","EPOCH":"2026-05-16T05:12:00.395136","MEAN_MOTION":13.13468655,"ECCENTRICITY":0.0001885,"INCLINATION":87.8946,"RA_OF_ASC_NODE":326.6026,"ARG_OF_PERICENTER":94.8833,"MEAN_ANOMALY":265.2512,"EPHEMERIS_TYPE":0,"CLASSIFICATION_TYPE":"U","NORAD_CAT_ID":49201,"ELEMENT_SET_NO":999,"REV_AT_EPOCH":22672,"BSTAR":0.00083451,"MEAN_MOTION_DOT":3.18e-06,"MEAN_MOTION_DDOT":0.0},{"OBJECT_NAME":"ONEWEB-0336","OBJECT_ID":"2021-083S","EPOCH":"2026-05-16T00:51:10.401120","MEAN_MOTION":13.1347204,"ECCENTRICITY":0.0001977,"INCLINATION":87.8939,"RA_OF_ASC_NODE":326.6345,"ARG_OF_PERICENTER":101.7504,"MEAN_ANOMALY":258.3847,"EPHEMERIS_TYPE":0,"CLASSIFICATION_TYPE":"U","NORAD_CAT_ID":49202,"ELEMENT_SET_NO":999,"REV_AT_EPOCH":22669,"BSTAR":5.2415000000000006e-05,"MEAN_MOTION_DOT":3.2e-07,"MEAN_MOTION_DDOT":0.0},{"OBJECT_NAME":"ONEWEB-0337","OBJECT_ID":"2021-083T","EPOCH":"2026-05-16T01:05:36.529152","MEAN_MOTION":13.13471859,"ECCENTRICITY":0.0001697,"INCLINATION":87.8941,"RA_OF_ASC_NODE":326.6395,"ARG_OF_PERICENTER":96.2926,"MEAN_ANOMALY":263.8397,"EPHEMERIS_TYPE":0,"CLASSIFICATION_TYPE":"U","NORAD_CAT_ID":49203,"ELEMENT_SET_NO":999,"REV_AT_EPOCH":22669,"BSTAR":0.0008722900000000001,"MEAN_MOTION_DOT":3.31e-06,"MEAN_MOTION_DDOT":0.0},{"OBJECT_NAME":"ONEWEB-0338","OBJECT_ID":"2021-083U","EPOCH":"2026-05-16T03:32:26.463264","MEAN_MOTION":13.20827138,"ECCENTRICITY":0.0001677,"INCLINATION":87.9153,"RA_OF_ASC_NODE":280.8418,"ARG_OF_PERICENTER":88.2678,"MEAN_ANOMALY":271.8647,"EPHEMERIS_TYPE":0,"CLASSIFICATION_TYPE":"U","NORAD_CAT_ID":49204,"ELEMENT_SET_NO":999,"REV_AT_EPOCH":23258,"BSTAR":-3.3778999999999996e-05,"MEAN_MOTION_DOT":-1e-08,"MEAN_MOTION_DDOT":0.0},{"OBJECT_NAME":"ONEWEB-0339","OBJECT_ID":"2021-083V","EPOCH":"2026-05-16T01:17:59.178624","MEAN_MOTION":13.1347131,"ECCENTRICITY":0.0001558,"INCLINATION":87.8943,"RA_OF_ASC_NODE":326.6295,"ARG_OF_PERICENTER":80.2071,"MEAN_ANOMALY":279.9234,"EPHEMERIS_TYPE":0,"CLASSIFICATION_TYPE":"U","NORAD_CAT_ID":49205,"ELEMENT_SET_NO":999,"REV_AT_EPOCH":22667,"BSTAR":0.0010003,"MEAN_MOTION_DOT":3.78e-06,"MEAN_MOTION_DDOT":0.0}]