ONEWEB-0320             
1 49190U 21083E   26136.06642727  .00000062  00000+0  12525-3 0  9994
2 49190  87.9167 341.8568 0001789  85.6952 274.4385 13.18686699225748
ONEWEB-0321             
1 49191U 21083F   26136.15590738 -.00000004  00000+0 -42244-4 0  9999
2 49191  87.9159 280.8231 0001743  92.6428 267.4905 13.20757270232605
ONEWEB-0322             
1 49192U 21083G   26136.08462683 -.00000180  00000+0 -52874-3 0  9993
2 49192  87.8938 326.6333 0001722  74.4670 285.6649 13.13470883226701
ONEWEB-0324             
1 49193U 21083H   26136.11532273  .00000043  00000+0  76768-4 0  9996
2 49193  87.9180 341.8310 0001677  89.7879 270.3445 13.18685233225778
ONEWEB-0325             
1 49194U 21083J   26136.11868858  .00000089  00000+0  19348-3 0  9998
2 49194  87.9168 341.8421 0001901  85.1287 275.0062 13.18685158225785
ONEWEB-0326             
1 49195U 21083K   26136.28575570  .00000077  00000+0  16309-3 0  9994
2 49195  87.9176 341.8035 0002127  90.7898 269.3478 13.18685210225794
ONEWEB-0327             
1 49196U 21083L   26136.05785036  .00000096  00000+0  21062-3 0  9993
2 49196  87.9171 341.8554 0002272  89.3802 270.7591 13.18685415225784
ONEWEB-0328             
1 49197U 21083M   26136.22682566  .00000070  00000+0  15702-3 0  9993
2 49197  87.8952 326.5748 0001674  93.1304 267.0017 13.13470838226702
ONEWEB-0331             
1 49198U 21083N   26136.27887204  .00000042  00000+0  72913-4 0  9992
2 49198  87.9177 341.7987 0002061  95.4901 264.6466 13.18685279225809
ONEWEB-0333             
1 49199U 21083P   26136.22173892  .00000163  00000+0  41193-3 0  9998
2 49199  87.8943 326.6051 0001813  88.6574 271.4763 13.13470777226715
ONEWEB-0334             
1 49200U 21083Q   26136.09781115  .00000401  00000+0  95455-3 0  9994
2 49200  87.9162 280.8479 0001533  66.4946 293.6349 13.20721488232554
ONEWEB-0335             
1 49201U 21083R   26136.21667124  .00000318  00000+0  83451-3 0  9992
2 49201  87.8946 326.6026 0001885  94.8833 265.2512 13.13468655226726
ONEWEB-0336             
1 49202U 21083S   26136.03553705  .00000032  00000+0  52415-4 0  9992
2 49202  87.8939 326.6345 0001977 101.7504 258.3847 13.13472040226691
ONEWEB-0337             
1 49203U 21083T   26136.04556168  .00000331  00000+0  87229-3 0  9992
2 49203  87.8941 326.6395 0001697  96.2926 263.8397 13.13471859226693
ONEWEB-0338             
1 49204U 21083U   26136.14752851 -.00000001  00000+0 -33779-4 0  9999
2 49204  87.9153 280.8418 0001677  88.2678 271.8647 13.20827138232585
ONEWEB-0339             
1 49205U 21083V   26136.05415716  .00000378  00000+0  10003-2 0  9994
2 49205  87.8943 326.6295 0001558  80.2071 279.9234 13.13471310226674
